<?xml version="1.0" encoding="UTF-8"?>
<ndm xmlns:xsi="http://www.w3.org/2001/XMLSchema-instance" xsi:noNamespaceSchemaLocation="https://sanaregistry.org/r/ndmxml_unqualified/ndmxml-2.0.0-master-2.0.xsd">
<omm id="CCSDS_OMM_VERS" version="2.0">
<header><CREATION_DATE/><ORIGINATOR/></header><body><segment><metadata><OBJECT_NAME>ONEWEB-0300</OBJECT_NAME><OBJECT_ID>2021-075Q</OBJECT_ID><CENTER_NAME>EARTH</CENTER_NAME><REF_FRAME>TEME</REF_FRAME><TIME_SYSTEM>UTC</TIME_SYSTEM><MEAN_ELEMENT_THEORY>SGP4</MEAN_ELEMENT_THEORY></metadata><data><meanElements><EPOCH>2025-06-21T15:42:40.766400</EPOCH><MEAN_MOTION>13.12443083</MEAN_MOTION><ECCENTRICITY>.0001582</ECCENTRICITY><INCLINATION>87.8878</INCLINATION><RA_OF_ASC_NODE>62.3581</RA_OF_ASC_NODE><ARG_OF_PERICENTER>85.7834</ARG_OF_PERICENTER><MEAN_ANOMALY>274.3475</MEAN_ANOMALY></meanElements><tleParameters><EPHEMERIS_TYPE>0</EPHEMERIS_TYPE><CLASSIFICATION_TYPE>U</CLASSIFICATION_TYPE><NORAD_CAT_ID>49089</NORAD_CAT_ID><ELEMENT_SET_NO>999</ELEMENT_SET_NO><REV_AT_EPOCH>18890</REV_AT_EPOCH><BSTAR>-.73038E-3</BSTAR><MEAN_MOTION_DOT>-.25E-5</MEAN_MOTION_DOT><MEAN_MOTION_DDOT>0</MEAN_MOTION_DDOT></tleParameters></data></segment></body></omm>
<omm id="CCSDS_OMM_VERS" version="2.0">
<header><CREATION_DATE/><ORIGINATOR/></header><body><segment><metadata><OBJECT_NAME>ONEWEB-0301</OBJECT_NAME><OBJECT_ID>2021-075R</OBJECT_ID><CENTER_NAME>EARTH</CENTER_NAME><REF_FRAME>TEME</REF_FRAME><TIME_SYSTEM>UTC</TIME_SYSTEM><MEAN_ELEMENT_THEORY>SGP4</MEAN_ELEMENT_THEORY></metadata><data><meanElements><EPOCH>2025-06-21T09:49:58.355616</EPOCH><MEAN_MOTION>13.12441922</MEAN_MOTION><ECCENTRICITY>.0001533</ECCENTRICITY><INCLINATION>87.8879</INCLINATION><RA_OF_ASC_NODE>62.4131</RA_OF_ASC_NODE><ARG_OF_PERICENTER>89.7952</ARG_OF_PERICENTER><MEAN_ANOMALY>270.3352</MEAN_ANOMALY></meanElements><tleParameters><EPHEMERIS_TYPE>0</EPHEMERIS_TYPE><CLASSIFICATION_TYPE>U</CLASSIFICATION_TYPE><NORAD_CAT_ID>49090</NORAD_CAT_ID><ELEMENT_SET_NO>999</ELEMENT_SET_NO><REV_AT_EPOCH>18724</REV_AT_EPOCH><BSTAR>-.10599E-2</BSTAR><MEAN_MOTION_DOT>-.369E-5</MEAN_MOTION_DOT><MEAN_MOTION_DDOT>0</MEAN_MOTION_DDOT></tleParameters></data></segment></body></omm>
<omm id="CCSDS_OMM_VERS" version="2.0">
<header><CREATION_DATE/><ORIGINATOR/></header><body><segment><metadata><OBJECT_NAME>ONEWEB-0302</OBJECT_NAME><OBJECT_ID>2021-075S</OBJECT_ID><CENTER_NAME>EARTH</CENTER_NAME><REF_FRAME>TEME</REF_FRAME><TIME_SYSTEM>UTC</TIME_SYSTEM><MEAN_ELEMENT_THEORY>SGP4</MEAN_ELEMENT_THEORY></metadata><data><meanElements><EPOCH>2025-06-21T15:00:37.861344</EPOCH><MEAN_MOTION>13.12440724</MEAN_MOTION><ECCENTRICITY>.0002211</ECCENTRICITY><INCLINATION>87.8878</INCLINATION><RA_OF_ASC_NODE>62.3713</RA_OF_ASC_NODE><ARG_OF_PERICENTER>74.7228</ARG_OF_PERICENTER><MEAN_ANOMALY>285.4145</MEAN_ANOMALY></meanElements><tleParameters><EPHEMERIS_TYPE>0</EPHEMERIS_TYPE><CLASSIFICATION_TYPE>U</CLASSIFICATION_TYPE><NORAD_CAT_ID>49091</NORAD_CAT_ID><ELEMENT_SET_NO>999</ELEMENT_SET_NO><REV_AT_EPOCH>18725</REV_AT_EPOCH><BSTAR>-.1232E-3</BSTAR><MEAN_MOTION_DOT>-.32E-6</MEAN_MOTION_DOT><MEAN_MOTION_DDOT>0</MEAN_MOTION_DDOT></tleParameters></data></segment></body></omm>
<omm id="CCSDS_OMM_VERS" version="2.0">
<header><CREATION_DATE/><ORIGINATOR/></header><body><segment><metadata><OBJECT_NAME>ONEWEB-0304</OBJECT_NAME><OBJECT_ID>2021-075T</OBJECT_ID><CENTER_NAME>EARTH</CENTER_NAME><REF_FRAME>TEME</REF_FRAME><TIME_SYSTEM>UTC</TIME_SYSTEM><MEAN_ELEMENT_THEORY>SGP4</MEAN_ELEMENT_THEORY></metadata><data><meanElements><EPOCH>2025-06-21T04:01:37.006752</EPOCH><MEAN_MOTION>13.17649314</MEAN_MOTION><ECCENTRICITY>.0001923</ECCENTRICITY><INCLINATION>87.9067</INCLINATION><RA_OF_ASC_NODE>77.7399</RA_OF_ASC_NODE><ARG_OF_PERICENTER>73.4291</ARG_OF_PERICENTER><MEAN_ANOMALY>286.7052</MEAN_ANOMALY></meanElements><tleParameters><EPHEMERIS_TYPE>0</EPHEMERIS_TYPE><CLASSIFICATION_TYPE>U</CLASSIFICATION_TYPE><NORAD_CAT_ID>49092</NORAD_CAT_ID><ELEMENT_SET_NO>999</ELEMENT_SET_NO><REV_AT_EPOCH>18603</REV_AT_EPOCH><BSTAR>.72687E-4</BSTAR><MEAN_MOTION_DOT>.41E-6</MEAN_MOTION_DOT><MEAN_MOTION_DDOT>0</MEAN_MOTION_DDOT></tleParameters></data></segment></body></omm>
<omm id="CCSDS_OMM_VERS" version="2.0">
<header><CREATION_DATE/><ORIGINATOR/></header><body><segment><metadata><OBJECT_NAME>ONEWEB-0305</OBJECT_NAME><OBJECT_ID>2021-075U</OBJECT_ID><CENTER_NAME>EARTH</CENTER_NAME><REF_FRAME>TEME</REF_FRAME><TIME_SYSTEM>UTC</TIME_SYSTEM><MEAN_ELEMENT_THEORY>SGP4</MEAN_ELEMENT_THEORY></metadata><data><meanElements><EPOCH>2025-06-21T11:09:16.580736</EPOCH><MEAN_MOTION>13.17650282</MEAN_MOTION><ECCENTRICITY>.0001856</ECCENTRICITY><INCLINATION>87.9065</INCLINATION><RA_OF_ASC_NODE>77.6578</RA_OF_ASC_NODE><ARG_OF_PERICENTER>64.8901</ARG_OF_PERICENTER><MEAN_ANOMALY>295.2423</MEAN_ANOMALY></meanElements><tleParameters><EPHEMERIS_TYPE>0</EPHEMERIS_TYPE><CLASSIFICATION_TYPE>U</CLASSIFICATION_TYPE><NORAD_CAT_ID>49093</NORAD_CAT_ID><ELEMENT_SET_NO>999</ELEMENT_SET_NO><REV_AT_EPOCH>18610</REV_AT_EPOCH><BSTAR>-.14896E-3</BSTAR><MEAN_MOTION_DOT>-.45E-6</MEAN_MOTION_DOT><MEAN_MOTION_DDOT>0</MEAN_MOTION_DDOT></tleParameters></data></segment></body></omm>
<omm id="CCSDS_OMM_VERS" version="2.0">
<header><CREATION_DATE/><ORIGINATOR/></header><body><segment><metadata><OBJECT_NAME>ONEWEB-0308</OBJECT_NAME><OBJECT_ID>2021-075V</OBJECT_ID><CENTER_NAME>EARTH</CENTER_NAME><REF_FRAME>TEME</REF_FRAME><TIME_SYSTEM>UTC</TIME_SYSTEM><MEAN_ELEMENT_THEORY>SGP4</MEAN_ELEMENT_THEORY></metadata><data><meanElements><EPOCH>2025-06-21T14:51:17.806176</EPOCH><MEAN_MOTION>13.12441240</MEAN_MOTION><ECCENTRICITY>.0001848</ECCENTRICITY><INCLINATION>87.8876</INCLINATION><RA_OF_ASC_NODE>62.3676</RA_OF_ASC_NODE><ARG_OF_PERICENTER>80.2507</ARG_OF_PERICENTER><MEAN_ANOMALY>279.8830</MEAN_ANOMALY></meanElements><tleParameters><EPHEMERIS_TYPE>0</EPHEMERIS_TYPE><CLASSIFICATION_TYPE>U</CLASSIFICATION_TYPE><NORAD_CAT_ID>49094</NORAD_CAT_ID><ELEMENT_SET_NO>999</ELEMENT_SET_NO><REV_AT_EPOCH>18726</REV_AT_EPOCH><BSTAR>.54489E-3</BSTAR><MEAN_MOTION_DOT>.209E-5</MEAN_MOTION_DOT><MEAN_MOTION_DDOT>0</MEAN_MOTION_DDOT></tleParameters></data></segment></body></omm>
<omm id="CCSDS_OMM_VERS" version="2.0">
<header><CREATION_DATE/><ORIGINATOR/></header><body><segment><metadata><OBJECT_NAME>ONEWEB-0309</OBJECT_NAME><OBJECT_ID>2021-075W</OBJECT_ID><CENTER_NAME>EARTH</CENTER_NAME><REF_FRAME>TEME</REF_FRAME><TIME_SYSTEM>UTC</TIME_SYSTEM><MEAN_ELEMENT_THEORY>SGP4</MEAN_ELEMENT_THEORY></metadata><data><meanElements><EPOCH>2025-06-21T03:56:45.883680</EPOCH><MEAN_MOTION>13.17651000</MEAN_MOTION><ECCENTRICITY>.0002417</ECCENTRICITY><INCLINATION>87.9068</INCLINATION><RA_OF_ASC_NODE>77.7344</RA_OF_ASC_NODE><ARG_OF_PERICENTER>76.0240</ARG_OF_PERICENTER><MEAN_ANOMALY>284.1160</MEAN_ANOMALY></meanElements><tleParameters><EPHEMERIS_TYPE>0</EPHEMERIS_TYPE><CLASSIFICATION_TYPE>U</CLASSIFICATION_TYPE><NORAD_CAT_ID>49095</NORAD_CAT_ID><ELEMENT_SET_NO>999</ELEMENT_SET_NO><REV_AT_EPOCH>18603</REV_AT_EPOCH><BSTAR>.13622E-3</BSTAR><MEAN_MOTION_DOT>.66E-6</MEAN_MOTION_DOT><MEAN_MOTION_DDOT>0</MEAN_MOTION_DDOT></tleParameters></data></segment></body></omm>
<omm id="CCSDS_OMM_VERS" version="2.0">
<header><CREATION_DATE/><ORIGINATOR/></header><body><segment><metadata><OBJECT_NAME>ONEWEB-0310</OBJECT_NAME><OBJECT_ID>2021-075X</OBJECT_ID><CENTER_NAME>EARTH</CENTER_NAME><REF_FRAME>TEME</REF_FRAME><TIME_SYSTEM>UTC</TIME_SYSTEM><MEAN_ELEMENT_THEORY>SGP4</MEAN_ELEMENT_THEORY></metadata><data><meanElements><EPOCH>2025-06-20T22:44:16.282752</EPOCH><MEAN_MOTION>13.12441351</MEAN_MOTION><ECCENTRICITY>.0001965</ECCENTRICITY><INCLINATION>87.8887</INCLINATION><RA_OF_ASC_NODE>62.5434</RA_OF_ASC_NODE><ARG_OF_PERICENTER>77.3216</ARG_OF_PERICENTER><MEAN_ANOMALY>282.8132</MEAN_ANOMALY></meanElements><tleParameters><EPHEMERIS_TYPE>0</EPHEMERIS_TYPE><CLASSIFICATION_TYPE>U</CLASSIFICATION_TYPE><NORAD_CAT_ID>49096</NORAD_CAT_ID><ELEMENT_SET_NO>999</ELEMENT_SET_NO><REV_AT_EPOCH>18880</REV_AT_EPOCH><BSTAR>-.10318E-2</BSTAR><MEAN_MOTION_DOT>-.358E-5</MEAN_MOTION_DOT><MEAN_MOTION_DDOT>0</MEAN_MOTION_DDOT></tleParameters></data></segment></body></omm>

</ndm>
