ONEWEB-0300             
1 49089U 21075Q   25172.65463850 -.00000250  00000+0 -73038-3 0  9991
2 49089  87.8878  62.3581 0001582  85.7834 274.3475 13.12443083188901
ONEWEB-0301             
1 49090U 21075R   25172.40970319 -.00000369  00000+0 -10599-2 0  9992
2 49090  87.8879  62.4131 0001533  89.7952 270.3352 13.12441922187243
ONEWEB-0302             
1 49091U 21075S   25172.62543821 -.00000032  00000+0 -12320-3 0  9993
2 49091  87.8878  62.3713 0002211  74.7228 285.4145 13.12440724187259
ONEWEB-0304             
1 49092U 21075T   25172.16778943  .00000041  00000+0  72687-4 0  9999
2 49092  87.9067  77.7399 0001923  73.4291 286.7052 13.17649314186033
ONEWEB-0305             
1 49093U 21075U   25172.46477524 -.00000045  00000+0 -14896-3 0  9997
2 49093  87.9065  77.6578 0001856  64.8901 295.2423 13.17650282186108
ONEWEB-0308             
1 49094U 21075V   25172.61895609  .00000209  00000+0  54489-3 0  9995
2 49094  87.8876  62.3676 0001848  80.2507 279.8830 13.12441240187268
ONEWEB-0309             
1 49095U 21075W   25172.16441995  .00000066  00000+0  13622-3 0  9996
2 49095  87.9068  77.7344 0002417  76.0240 284.1160 13.17651000186036
ONEWEB-0310             
1 49096U 21075X   25171.94741068 -.00000358  00000+0 -10318-2 0  9990
2 49096  87.8887  62.5434 0001965  77.3216 282.8132 13.12441351188803
